HST                     
1 20580U 90037B   24345.40545193  .00011521  00000+0  48590-3 0  9991
2 20580  28.4676 241.2964 0002002 163.3979 196.6681 15.21693936703866
POLAR                   
1 23802U 96013A   24339.87421716  .00000229  00000+0  00000+0 0  9992
2 23802  79.2596 232.9944 5976929 227.9579  62.9521  1.29846741137598
SWAS                    
1 25560U 98071A   24346.00100375  .00005800  00000+0  43125-3 0  9998
2 25560  69.8969 208.0567 0005845 356.1086   4.0028 15.03502498414196
CXO                     
1 25867U 99040B   24347.67995738  .00000403  00000+0  00000+0 0  9999
2 25867  45.2638 139.9696 8693340 305.0901   0.0820  0.37810292 15235
XMM-NEWTON              
1 25989U 99066A   24343.92148737  .00000067  00000+0  00000+0 0  9991
2 25989  67.0986 290.4307 4985269  74.3851   0.2120  0.50134944 20228
TERRA                   
1 25994U 99068A   24346.17598723  .00001079  00000+0  23271-3 0  9996
2 25994  98.0268  44.3066 0002857 144.1080 274.9967 14.60302515328999
CLUSTER II-FM7 (SAMBA)  
1 26410U 00041A   24341.09285706  .00001261  00000+0  00000+0 0  9997
2 26410 141.3506   3.2013 7912553 218.4018   0.1253  0.44795038 17807
CLUSTER II-FM5 (RUMBA)  
1 26463U 00045A   24347.34741360  .00005316  00000+0  00000+0 0  9991
2 26463 153.4702  41.9789 8886622 258.5537   0.0393  0.42910680 17753
ODIN                    
1 26702U 01007A   24345.93388647  .00020069  00000+0  67205-3 0  9990
2 26702  97.4666   1.2366 0007789  29.6499 330.5182 15.30952645303867
TIMED                   
1 26998U 01055B   24345.78926826  .00003965  00000+0  38614-3 0  9998
2 26998  74.0703 267.4434 0002957 258.3244 101.7607 14.92863421248161
INTEGRAL                
1 27540U 02048A   24345.35929097 -.00000220  00000+0  00000+0 0  9997
2 27540  90.5431  12.7017 8619909 276.9414 115.6847  0.37576099 24559
CORIOLIS                
1 27640U 03001A   24345.93002662  .00000342  00000+0  18254-3 0  9990
2 27640  98.7141 350.3539 0014285  10.6338 349.5137 14.19660460135716
SORCE                   
1 27651U 03004A   24345.81297389  .00006430  00000+0  54438-3 0  9992
2 27651  39.9903 166.9776 0019911  40.9141 319.3141 14.98039594188717
MOST                    
1 27843U 03031D   24345.92895469  .00000247  00000+0  13368-3 0  9997
2 27843  98.7072 350.3903 0010781  53.5900 306.6270 14.21108566112126
SCISAT 1                
1 27858U 03036A   24346.08176565  .00001504  00000+0  20305-3 0  9991
2 27858  73.9290 189.3082 0006968  10.4631 349.6688 14.80078656149583
SWIFT                   
1 28485U 04047A   24346.17467752  .00023125  00000+0  79840-3 0  9993
2 28485  20.5573 346.6395 0006655  65.1845 294.9285 15.27943370101347
CALIPSO                 
1 29108U 06016B   24346.21744914  .00002946  00000+0  53239-3 0  9999
2 29108  98.4357 332.8228 0001191  94.6198 265.5141 14.67209462991919
HINODE (SOLAR-B)        
1 29479U 06041A   24345.95082118  .00001721  00000+0  31300-3 0  9994
2 29479  98.0826 358.8510 0016596 239.8716 120.0844 14.67308503973699
SHIJIAN-6 02A (SJ-6 02A)
1 29505U 06046A   24346.09397773  .00009619  00000+0  63424-3 0  9997
2 29505  97.7059  13.1341 0002417 223.7823 136.3213 15.07692221988777
SHIJIAN-6 02B (SJ-6 02B)
1 29506U 06046B   24346.12967683  .00002872  00000+0  24382-3 0  9999
2 29506  97.7239   9.3854 0002366  76.8401 283.3086 14.98695234987828
FGRST (GLAST)           
1 33053U 08029A   24345.61551237  .00006707  00000+0  29436-3 0  9997
2 33053  25.5829  75.5953 0009075 296.1247  63.8356 15.19231659911412
SDO                     
1 36395U 10005A   24345.66597174 -.00000062  00000+0  00000+0 0  9992
2 36395  33.4915  94.8431 0002012 179.7553 303.2583  1.00270474 54518
CRYOSAT 2               
1 36508U 10013A   24345.92946896  .00000479  00000+0  11803-3 0  9993
2 36508  92.0156 143.7673 0003764  70.8078 289.3536 14.51911245777806
X-SAT                   
1 37389U 11015C   24346.09676440  .00000359  00000+0  17081-3 0  9999
2 37389  98.3006 340.4263 0014360 162.9448 197.2218 14.24900450709429
GCOM-W1 (SHIZUKU)       
1 38337U 12025A   24345.57827478  .00001732  00000+0  39535-3 0  9990
2 38337  98.2221 283.0767 0001717  70.6580 102.5896 14.57006939668415
NUSTAR                  
1 38358U 12031A   24346.00001157  .00018389  00000+0  13583-2 0  9997
2 38358   6.0253 199.0078 0009879 208.6562 224.2378 15.00352227  1300
NEOSSAT                 
1 39089U 13009D   24345.76517075  .00000540  00000+0  20263-3 0  9992
2 39089  98.4007 168.5388 0012200  95.5666 264.6911 14.35428139617339
BRITE-AUSTRIA           
1 39091U 13009F   24346.10287217  .00000562  00000+0  20741-3 0  9991
2 39091  98.3817 168.8555 0011439  91.4859 268.7638 14.36103403617663
IRIS                    
1 39197U 13033A   24345.78226875  .00003503  00000+0  43084-3 0  9994
2 39197  97.9548 175.6282 0024981 329.0461  30.9279 14.83442234618250
HISAKI (SPRINT-A)       
1 39253U 13049A   24346.15747902  .00000198  00000+0  17678-3 0  9992
2 39253  29.7180 151.4595 0136944 213.7353 145.4440 13.55454312557374
CASSIOPE                
1 39265U 13055A   24346.09235118  .00026389  00000+0  47828-3 0  9996
2 39265  80.9479 356.9634 0446705  72.4664 292.4829 14.83630802584474
STSAT-3                 
1 39422U 13066G   24346.19608238  .00005437  00000+0  46872-3 0  9990
2 39422  97.5407 318.9656 0021339 123.1053 237.2221 14.97525355601287
SWARM B                 
1 39451U 13067A   24346.21424465  .00006750  00000+0  28585-3 0  9994
2 39451  87.7485 149.5805 0002617  84.1579 275.9966 15.22998285613527
SWARM A                 
1 39452U 13067B   24346.17378374  .00013062  00000+0  35459-3 0  9999
2 39452  87.3401 259.1324 0003759  87.3396 272.8288 15.37464870620947
SWARM C                 
1 39453U 13067C   24346.17367337  .00012904  00000+0  35030-3 0  9996
2 39453  87.3402 257.7217 0003754  86.8159 273.3524 15.37464070620918
BRITE-CA1 (TORONTO)     
1 40020U 14033L   24345.93057301  .00002733  00000+0  43522-3 0  9996
2 40020  97.9006 117.2504 0080311 247.1632 112.1079 14.70662372560940
OCO 2                   
1 40059U 14035A   24345.95369512  .00001363  00000+0  31225-3 0  9997
2 40059  98.2220 284.1914 0001582  79.5223 280.6153 14.57141470555482
BRITE-PL2 (HEWELIUSZ)   
1 40119U 14049B   24345.52338322  .00004056  00000+0  41562-3 0  9994
2 40119  97.8873  84.6819 0015889 140.1441 220.0947 14.90941697558924
RESURS-P 2              
1 40360U 14087A   24346.15620446  .00130246  00000+0  52771-3 0  9990
2 40360  97.1359  76.2775 0002903 339.2400  20.8753 15.85931922558815
MMS 1                   
1 40482U 15011A   24344.66667824 -.00000053  00000+0  00000+0 0  9995
2 40482  57.7729   1.2079 8938079 154.6386 100.3249  0.28520038  1382
MMS 2                   
1 40483U 15011B   24344.66667824 -.00000053  00000+0  00000+0 0  9996
2 40483  57.7720   1.2089 8937674 154.6379  98.8360  0.28519007  1386
MMS 3                   
1 40484U 15011C   24344.66667824 -.00000053  00000+0  00000+0 0  9997
2 40484  57.7749   1.2066 8937981 154.6391  99.0631  0.28519877  1387
MMS 4                   
1 40485U 15011D   24344.75001157 -.00000054  00000+0  00000+0 0  9990
2 40485  57.7768   1.2069 8936565 154.6402  97.6592  0.28523029  1386
ASTROSAT                
1 40930U 15052A   24344.10469292  .00003691  00000+0  38630-3 0  9990
2 40930   5.9955 185.5612 0007847  30.6556 329.4030 14.80502678497361
DAMPE                   
1 41173U 15078A   24346.10700912  .00002868  00000+0  10629-3 0  9990
2 41173  97.4406 339.1764 0011042 232.1228 127.9013 15.28416120499992
PISAT                   
1 41784U 16059B   24346.08154062  .00002310  00000+0  41698-3 0  9996
2 41784  97.8245   0.0530 0030232 168.1059 192.0867 14.67069883438582
HXMT (HUIYAN)           
1 42758U 17034A   24346.10747745  .00012252  00000+0  57040-3 0  9995
2 42758  43.0153  12.2112 0011002 180.9409 179.1421 15.19825578413721
FLYING LAPTOP           
1 42831U 17042G   24345.89966266  .00005867  00000+0  51299-3 0  9996
2 42831  97.3890 156.9074 0011848 194.3056 165.7833 14.97059136403553
ZHANGHENG 1 (CSES)      
1 43194U 18015C   24346.13161522  .00018294  00000+0  82539-3 0  9999
2 43194  97.6264 131.8311 0006005 297.1114  62.9509 15.21044981380581
SALSAT                  
1 46495U 20068K   24345.65013272  .00012757  00000+0  62698-3 0  9993
2 46495  97.8395 310.1978 0014871  70.3935 289.8902 15.18090934231035
IXPE                    
1 49954U 21121A   24345.91667824  .00010807  00000+0  73524-3 0  9998
2 49954   0.2287 157.8174 0008484  33.2333  59.0798 15.02102678  5663
